ORBCOMM FM16            
1 25417U 98046E   26061.80353759  .00001554  00000+0  53569-3 0  9996
2 25417  44.9947  23.8763 0002836 185.0853 174.9967 14.39810475441516
ORBCOMM FM15            
1 25418U 98046F   26060.94344064  .00000411  00000+0  17640-3 0  9991
2 25418  44.9980  33.9056 0002671 186.0202 174.0615 14.39427017441378
ORBCOMM FM14            
1 25419U 98046G   26061.58389198  .00001550  00000+0  53387-3 0  9993
2 25419  44.9965  28.2842 0001376 199.4737 160.6060 14.39869078441444
ORBCOMM FM13            
1 25420U 98046H   26061.31291530  .00001364  00000+0  48906-3 0  9992
2 25420  44.9981  40.2367 0002988 148.7804 211.3222 14.38425261440390
ORBCOMM FM21            
1 25475U 98053A   26061.52561634  .00001018  00000+0  38009-3 0  9997
2 25475  45.0070 125.5009 0000929 216.5097 143.5688 14.37996263434425
ORBCOMM FM22            
1 25476U 98053B   26061.49866651  .00001256  00000+0  44711-3 0  9992
2 25476  45.0062 118.2219 0001052 113.1737 246.9223 14.39218626434470
ORBCOMM FM23            
1 25477U 98053C   26061.62579333  .00001180  00000+0  43097-3 0  9998
2 25477  45.0072 126.7121 0000563 137.2567 222.8325 14.38256907434594
ORBCOMM FM24            
1 25478U 98053D   26061.52501484  .00001240  00000+0  44482-3 0  9996
2 25478  45.0068 123.4651 0000732 173.4185 186.6673 14.38901494434645
ORBCOMM FM25            
1 25479U 98053E   26061.43241599  .00001289  00000+0  46085-3 0  9999
2 25479  45.0061 122.2172 0002778 126.0669 234.0438 14.38865690434922
ORBCOMM FM26            
1 25480U 98053F   26061.41483385  .00001050  00000+0  39223-3 0  9992
2 25480  45.0059 120.7324 0005031 136.4516 223.6731 14.37802904434809
ORBCOMM FM27            
1 25481U 98053G   26061.48334215  .00001329  00000+0  47330-3 0  9994
2 25481  45.0043 122.0746 0001658 235.9779 124.0912 14.38909206434868
ORBCOMM FM28            
1 25482U 98053H   26061.35569349  .00001146  00000+0  41361-3 0  9994
2 25482  45.0055  59.8885 0003490 186.1945 173.8861 14.39005986435534
ORBCOMM FM30            
1 25980U 99065A   26061.65336213  .00001003  00000+0  37533-3 0  9994
2 25980  45.0317 305.6968 0005692 230.1423 129.8926 14.37964767371642
ORBCOMM FM31            
1 25981U 99065B   26061.63913739  .00000980  00000+0  36859-3 0  9990
2 25981  45.0228 299.2065 0003516 262.1515  97.8934 14.37887562371190
ORBCOMM FM32            
1 25982U 99065C   26061.64717079  .00001076  00000+0  40757-3 0  9990
2 25982  45.0162 317.4686 0005770 255.3828 104.6381 14.36949238371769
ORBCOMM FM33            
1 25983U 99065D   26061.66781053  .00001211  00000+0  41917-3 0  9996
2 25983  45.0272 209.3527 0008257 276.1151  83.8758 14.40767111373332
